[
    {
        "Altitude(m)": 610399.5123662769,
        "Argument of Periapsis(deg)": 0.0,
        "Eccentricity": 0.0,
        "Inclination(deg)": 60.0,
        "Latitude(deg)": 52.11128950220975,
        "Longitude(deg)": -37.41580519960747,
        "Mean Anomaly(deg)": 65.4545,
        "RAAN(deg)": 15.0,
        "Satellite Name": "Test1 70",
        "Satellite Number": 70,
        "Semi-Major Axis(m)": 6980739.136638005,
        "Time(s)": 0
    },
    {
        "Altitude(m)": 610481.663935314,
        "Argument of Periapsis(deg)": 0.00010418945913296404,
        "Eccentricity": 0.0,
        "Inclination(deg)": 60.0,
        "Latitude(deg)": 52.47089294825452,
        "Longitude(deg)": -36.63367122241144,
        "Mean Anomaly(deg)": 66.07460614546183,
        "RAAN(deg)": 14.999579950860259,
        "Satellite Name": "Test1 70",
        "Satellite Number": 70,
        "Semi-Major Axis(m)": 6980739.136638005,
        "Time(s)": 10
    },
    {
        "Altitude(m)": 610562.3543287031,
        "Argument of Periapsis(deg)": 0.0002083789182659281,
        "Eccentricity": 0.0,
        "Inclination(deg)": 60.0,
        "Latitude(deg)": 52.82464901958388,
        "Longitude(deg)": -35.83812424881308,
        "Mean Anomaly(deg)": 66.69471229092365,
        "RAAN(deg)": 14.999159901720514,
        "Satellite Name": "Test1 70",
        "Satellite Number": 70,
        "Semi-Major Axis(m)": 6980739.136638005,
        "Time(s)": 20
    },
    {
        "Altitude(m)": 610641.5360802773,
        "Argument of Periapsis(deg)": 0.00031256837739889213,
        "Eccentricity": 0.0,
        "Inclination(deg)": 60.0,
        "Latitude(deg)": 53.172388189614445,
        "Longitude(deg)": -35.02899976543448,
        "Mean Anomaly(deg)": 67.3148184363855,
        "RAAN(deg)": 14.99873985258077,
        "Satellite Name": "Test1 70",
        "Satellite Number": 70,
        "Semi-Major Axis(m)": 6980739.136638005,
        "Time(s)": 30
    },
    {
        "Altitude(m)": 610719.1626803251,
        "Argument of Periapsis(deg)": 0.0004167578365318562,
        "Eccentricity": 0.0,
        "Inclination(deg)": 60.0,
        "Latitude(deg)": 53.513937455819985,
        "Longitude(deg)": -34.20614487117488,
        "Mean Anomaly(deg)": 67.93492458184731,
        "RAAN(deg)": 14.998319803441028,
        "Satellite Name": "Test1 70",
        "Satellite Number": 70,
        "Semi-Major Axis(m)": 6980739.136638005,
        "Time(s)": 40
    },
    {
        "Altitude(m)": 610795.1885979028,
        "Argument of Periapsis(deg)": 0.0005209472956648203,
        "Eccentricity": 0.0,
        "Inclination(deg)": 60.0,
        "Latitude(deg)": 53.849120461690354,
        "Longitude(deg)": -33.36942069139036,
        "Mean Anomaly(deg)": 68.55503072730914,
        "RAAN(deg)": 14.997899754301287,
        "Satellite Name": "Test1 70",
        "Satellite Number": 70,
        "Semi-Major Axis(m)": 6980739.136638005,
        "Time(s)": 50
    },
    {
        "Altitude(m)": 610869.5693026853,
        "Argument of Periapsis(deg)": 0.0006251367547977843,
        "Eccentricity": 0.0,
        "Inclination(deg)": 60.0,
        "Latitude(deg)": 54.17775764301764,
        "Longitude(deg)": -32.518703344847744,
        "Mean Anomaly(deg)": 69.17513687277096,
        "RAAN(deg)": 14.997479705161544,
        "Satellite Name": "Test1 70",
        "Satellite Number": 70,
        "Semi-Major Axis(m)": 6980739.136638005,
        "Time(s)": 60
    },
    {
        "Altitude(m)": 610942.2612862767,
        "Argument of Periapsis(deg)": 0.0007293262139307483,
        "Eccentricity": 0.0,
        "Inclination(deg)": 60.0,
        "Latitude(deg)": 54.49966640017053,
        "Longitude(deg)": -31.653884972019053,
        "Mean Anomaly(deg)": 69.79524301823281,
        "RAAN(deg)": 14.997059656021802,
        "Satellite Name": "Test1 70",
        "Satellite Number": 70,
        "Semi-Major Axis(m)": 6980739.136638005,
        "Time(s)": 70
    },
    {
        "Altitude(m)": 611013.2220830419,
        "Argument of Periapsis(deg)": 0.0008335156730637124,
        "Eccentricity": 0.0,
        "Inclination(deg)": 60.0,
        "Latitude(deg)": 54.81466129798043,
        "Longitude(deg)": -30.7748763319713,
        "Mean Anomaly(deg)": 70.41534916369464,
        "RAAN(deg)": 14.996639606882056,
        "Satellite Name": "Test1 70",
        "Satellite Number": 70,
        "Semi-Major Axis(m)": 6980739.136638005,
        "Time(s)": 80
    },
    {
        "Altitude(m)": 611082.4102904026,
        "Argument of Periapsis(deg)": 0.0009377051321966765,
        "Eccentricity": 0.0,
        "Inclination(deg)": 60.0,
        "Latitude(deg)": 55.12255429480142,
        "Longitude(deg)": -29.881607935064153,
        "Mean Anomaly(deg)": 71.03545530915646,
        "RAAN(deg)": 14.996219557742315,
        "Satellite Name": "Test1 70",
        "Satellite Number": 70,
        "Semi-Major Axis(m)": 6980739.136638005,
        "Time(s)": 90
    },
    {
        "Altitude(m)": 611149.785588622,
        "Argument of Periapsis(deg)": 0.0010418945913296407,
        "Eccentricity": 0.0,
        "Inclination(deg)": 60.0,
        "Latitude(deg)": 55.42315500220309,
        "Longitude(deg)": -28.974031215738062,
        "Mean Anomaly(deg)": 71.6555614546183,
        "RAAN(deg)": 14.995799508602571,
        "Satellite Name": "Test1 70",
        "Satellite Number": 70,
        "Semi-Major Axis(m)": 6980739.136638005,
        "Time(s)": 100
    },
    {
        "Altitude(m)": 611215.3087600485,
        "Argument of Periapsis(deg)": 0.0011460840504626045,
        "Eccentricity": 0.0,
        "Inclination(deg)": 60.0,
        "Latitude(deg)": 55.716270976622404,
        "Longitude(deg)": -28.05212124803793,
        "Mean Anomaly(deg)": 72.27566760008013,
        "RAAN(deg)": 14.99537945946283,
        "Satellite Name": "Test1 70",
        "Satellite Number": 70,
        "Semi-Major Axis(m)": 6980739.136638005,
        "Time(s)": 110
    },
    {
        "Altitude(m)": 611278.9417078145,
        "Argument of Periapsis(deg)": 0.0012502735095955685,
        "Eccentricity": 0.0,
        "Inclination(deg)": 60.0,
        "Latitude(deg)": 56.00170804413683,
        "Longitude(deg)": -27.115877966183543,
        "Mean Anomaly(deg)": 72.89577374554196,
        "RAAN(deg)": 14.994959410323089,
        "Satellite Name": "Test1 70",
        "Satellite Number": 70,
        "Semi-Major Axis(m)": 6980739.136638005,
        "Time(s)": 120
    },
    {
        "Altitude(m)": 611340.6474739872,
        "Argument of Periapsis(deg)": 0.0013544629687285324,
        "Eccentricity": 0.0,
        "Inclination(deg)": 60.0,
        "Latitude(deg)": 56.27927065930544,
        "Longitude(deg)": -26.16532738933648,
        "Mean Anomaly(deg)": 73.51587989100379,
        "RAAN(deg)": 14.994539361183342,
        "Satellite Name": "Test1 70",
        "Satellite Number": 70,
        "Semi-Major Axis(m)": 6980739.136638005,
        "Time(s)": 130
    },
    {
        "Altitude(m)": 611400.3902571906,
        "Argument of Periapsis(deg)": 0.0014586524278614966,
        "Eccentricity": 0.0,
        "Inclination(deg)": 60.0,
        "Latitude(deg)": 56.54876229876805,
        "Longitude(deg)": -25.200524347911053,
        "Mean Anomaly(deg)": 74.13598603646562,
        "RAAN(deg)": 14.994119312043603,
        "Satellite Name": "Test1 70",
        "Satellite Number": 70,
        "Semi-Major Axis(m)": 6980739.136638005,
        "Time(s)": 140
    },
    {
        "Altitude(m)": 611458.1354295972,
        "Argument of Periapsis(deg)": 0.0015628418869944607,
        "Eccentricity": 0.0,
        "Inclination(deg)": 60.0,
        "Latitude(deg)": 56.809985890004114,
        "Longitude(deg)": -24.221553668371033,
        "Mean Anomaly(deg)": 74.75609218192744,
        "RAAN(deg)": 14.993699262903858,
        "Satellite Name": "Test1 70",
        "Satellite Number": 70,
        "Semi-Major Axis(m)": 6980739.136638005,
        "Time(s)": 150
    },
    {
        "Altitude(m)": 611513.8495534222,
        "Argument of Periapsis(deg)": 0.0016670313461274247,
        "Eccentricity": 0.0,
        "Inclination(deg)": 60.0,
        "Latitude(deg)": 57.06274427529847,
        "Longitude(deg)": -23.22853131032898,
        "Mean Anomaly(deg)": 75.37619832738928,
        "RAAN(deg)": 14.993279213764117,
        "Satellite Name": "Test1 70",
        "Satellite Number": 70,
        "Semi-Major Axis(m)": 6980739.136638005,
        "Time(s)": 160
    },
    {
        "Altitude(m)": 611567.5003968059,
        "Argument of Periapsis(deg)": 0.0017712208052603888,
        "Eccentricity": 0.0,
        "Inclination(deg)": 60.0,
        "Latitude(deg)": 57.30684071057396,
        "Longitude(deg)": -22.221606948122986,
        "Mean Anomaly(deg)": 75.99630447285111,
        "RAAN(deg)": 14.992859164624372,
        "Satellite Name": "Test1 70",
        "Satellite Number": 70,
        "Semi-Major Axis(m)": 6980739.136638005,
        "Time(s)": 170
    },
    {
        "Altitude(m)": 611619.0569491116,
        "Argument of Periapsis(deg)": 0.001875410264393353,
        "Eccentricity": 0.0,
        "Inclination(deg)": 60.0,
        "Latitude(deg)": 57.542079398321725,
        "Longitude(deg)": -21.200964948953718,
        "Mean Anomaly(deg)": 76.61641061831294,
        "RAAN(deg)": 14.99243911548463,
        "Satellite Name": "Test1 70",
        "Satellite Number": 70,
        "Semi-Major Axis(m)": 6980739.136638005,
        "Time(s)": 180
    },
    {
        "Altitude(m)": 611668.4894356214,
        "Argument of Periapsis(deg)": 0.0019795997235263173,
        "Eccentricity": 0.0,
        "Inclination(deg)": 60.0,
        "Latitude(deg)": 57.76826605337785,
        "Longitude(deg)": -20.166825237003046,
        "Mean Anomaly(deg)": 77.23651676377476,
        "RAAN(deg)": 14.992019066344888,
        "Satellite Name": "Test1 70",
        "Satellite Number": 70,
        "Semi-Major Axis(m)": 6980739.136638005,
        "Time(s)": 190
    }
]